STARLINK-34004          
1 63941U 25098R   26068.88913470  .00005482  00000+0  46685-3 0  9999
2 63941  70.0004 273.8907 0002577 262.3532  97.7334 14.98333475 46589
ION SCV-022             
1 66682U 25276S   26068.74520243  .00001950  00000+0  17277-3 0  9990
2 66682  97.5376 142.9780 0004539 154.7099 205.4346 14.97347265 15192
